[{"OBJECT_NAME":"ONEWEB-0631","OBJECT_ID":"2023-004AH","EPOCH":"2026-04-18T03:48:31.775904","MEAN_MOTION":13.1868613,"ECCENTRICITY":0.0001409,"INCLINATION":87.9219,"RA_OF_ASC_NODE":347.3722,"ARG_OF_PERICENTER":68.2567,"MEAN_ANOMALY":291.8715,"EPHEMERIS_TYPE":0,"CLASSIFICATION_TYPE":"U","NORAD_CAT_ID":55171,"ELEMENT_SET_NO":999,"REV_AT_EPOCH":16176,"BSTAR":0.00018149000000000003,"MEAN_MOTION_DOT":8.4e-07,"MEAN_MOTION_DDOT":0.0},{"OBJECT_NAME":"ONEWEB-0709","OBJECT_ID":"2023-004AJ","EPOCH":"2026-04-18T05:38:31.852896","MEAN_MOTION":13.11419685,"ECCENTRICITY":0.0002144,"INCLINATION":87.892,"RA_OF_ASC_NODE":32.9989,"ARG_OF_PERICENTER":53.7778,"MEAN_ANOMALY":306.3548,"EPHEMERIS_TYPE":0,"CLASSIFICATION_TYPE":"U","NORAD_CAT_ID":55172,"ELEMENT_SET_NO":999,"REV_AT_EPOCH":15801,"BSTAR":0.0015792999999999998,"MEAN_MOTION_DOT":5.72e-06,"MEAN_MOTION_DDOT":0.0},{"OBJECT_NAME":"ONEWEB-0710","OBJECT_ID":"2023-004AK","EPOCH":"2026-04-18T05:08:27.327552","MEAN_MOTION":13.17647842,"ECCENTRICITY":0.0001659,"INCLINATION":87.9186,"RA_OF_ASC_NODE":17.7806,"ARG_OF_PERICENTER":81.0869,"MEAN_ANOMALY":279.0451,"EPHEMERIS_TYPE":0,"CLASSIFICATION_TYPE":"U","NORAD_CAT_ID":55173,"ELEMENT_SET_NO":999,"REV_AT_EPOCH":15968,"BSTAR":-0.00011498,"MEAN_MOTION_DOT":-3.2e-07,"MEAN_MOTION_DDOT":0.0},{"OBJECT_NAME":"ONEWEB-0711","OBJECT_ID":"2023-004AL","EPOCH":"2026-04-17T05:08:43.699488","MEAN_MOTION":13.11418516,"ECCENTRICITY":0.0001015,"INCLINATION":87.8927,"RA_OF_ASC_NODE":33.1878,"ARG_OF_PERICENTER":89.1107,"MEAN_ANOMALY":271.0137,"EPHEMERIS_TYPE":0,"CLASSIFICATION_TYPE":"U","NORAD_CAT_ID":55174,"ELEMENT_SET_NO":999,"REV_AT_EPOCH":15784,"BSTAR":-0.0010103,"MEAN_MOTION_DOT":-3.45e-06,"MEAN_MOTION_DDOT":0.0},{"OBJECT_NAME":"ONEWEB-0713","OBJECT_ID":"2023-004AM","EPOCH":"2026-04-18T05:23:52.455552","MEAN_MOTION":13.11418242,"ECCENTRICITY":0.0001552,"INCLINATION":87.8921,"RA_OF_ASC_NODE":32.9867,"ARG_OF_PERICENTER":84.8169,"MEAN_ANOMALY":275.3136,"EPHEMERIS_TYPE":0,"CLASSIFICATION_TYPE":"U","NORAD_CAT_ID":55175,"ELEMENT_SET_NO":999,"REV_AT_EPOCH":15796,"BSTAR":0.00033179,"MEAN_MOTION_DOT":1.3e-06,"MEAN_MOTION_DDOT":0.0},{"OBJECT_NAME":"ONEWEB-0715","OBJECT_ID":"2023-004AN","EPOCH":"2026-04-18T05:16:32.701152","MEAN_MOTION":13.11418372,"ECCENTRICITY":0.0001742,"INCLINATION":87.8923,"RA_OF_ASC_NODE":32.9871,"ARG_OF_PERICENTER":57.2379,"MEAN_ANOMALY":302.8917,"EPHEMERIS_TYPE":0,"CLASSIFICATION_TYPE":"U","NORAD_CAT_ID":55176,"ELEMENT_SET_NO":999,"REV_AT_EPOCH":15800,"BSTAR":0.00041427000000000006,"MEAN_MOTION_DOT":1.6e-06,"MEAN_MOTION_DDOT":0.0},{"OBJECT_NAME":"ONEWEB-0716","OBJECT_ID":"2023-004AP","EPOCH":"2026-04-18T04:58:43.619520","MEAN_MOTION":13.17647337,"ECCENTRICITY":0.0002092,"INCLINATION":87.9183,"RA_OF_ASC_NODE":17.7833,"ARG_OF_PERICENTER":80.3957,"MEAN_ANOMALY":279.7411,"EPHEMERIS_TYPE":0,"CLASSIFICATION_TYPE":"U","NORAD_CAT_ID":55177,"ELEMENT_SET_NO":999,"REV_AT_EPOCH":15968,"BSTAR":-0.00012156000000000001,"MEAN_MOTION_DOT":-3.4e-07,"MEAN_MOTION_DDOT":0.0},{"OBJECT_NAME":"ONEWEB-0717","OBJECT_ID":"2023-004AQ","EPOCH":"2026-04-18T04:34:25.616928","MEAN_MOTION":13.17647606,"ECCENTRICITY":0.0001163,"INCLINATION":87.9195,"RA_OF_ASC_NODE":17.7694,"ARG_OF_PERICENTER":87.9187,"MEAN_ANOMALY":272.2078,"EPHEMERIS_TYPE":0,"CLASSIFICATION_TYPE":"U","NORAD_CAT_ID":55178,"ELEMENT_SET_NO":999,"REV_AT_EPOCH":15973,"BSTAR":0.00018153,"MEAN_MOTION_DOT":8.3e-07,"MEAN_MOTION_DDOT":0.0},{"OBJECT_NAME":"ONEWEB-0719","OBJECT_ID":"2023-004AR","EPOCH":"2026-04-18T04:49:00.466176","MEAN_MOTION":13.17647382,"ECCENTRICITY":0.000201,"INCLINATION":87.919,"RA_OF_ASC_NODE":17.7487,"ARG_OF_PERICENTER":83.8583,"MEAN_ANOMALY":276.2777,"EPHEMERIS_TYPE":0,"CLASSIFICATION_TYPE":"U","NORAD_CAT_ID":55179,"ELEMENT_SET_NO":999,"REV_AT_EPOCH":15968,"BSTAR":1.6034000000000003e-05,"MEAN_MOTION_DOT":1.9e-07,"MEAN_MOTION_DDOT":0.0},{"OBJECT_NAME":"ONEWEB-0530","OBJECT_ID":"2023-029A","EPOCH":"2026-04-18T05:49:19.032096","MEAN_MOTION":13.20772768,"ECCENTRICITY":0.000162,"INCLINATION":87.9127,"RA_OF_ASC_NODE":286.4402,"ARG_OF_PERICENTER":110.1416,"MEAN_ANOMALY":249.9892,"EPHEMERIS_TYPE":0,"CLASSIFICATION_TYPE":"U","NORAD_CAT_ID":55796,"ELEMENT_SET_NO":999,"REV_AT_EPOCH":15323,"BSTAR":-0.00023625,"MEAN_MOTION_DOT":-8.3e-07,"MEAN_MOTION_DDOT":0.0},{"OBJECT_NAME":"ONEWEB-0534","OBJECT_ID":"2023-029B","EPOCH":"2026-04-18T05:31:07.945248","MEAN_MOTION":13.20772824,"ECCENTRICITY":0.0001883,"INCLINATION":87.9131,"RA_OF_ASC_NODE":286.4417,"ARG_OF_PERICENTER":92.8772,"MEAN_ANOMALY":267.2577,"EPHEMERIS_TYPE":0,"CLASSIFICATION_TYPE":"U","NORAD_CAT_ID":55797,"ELEMENT_SET_NO":999,"REV_AT_EPOCH":15323,"BSTAR":-9.481000000000001e-05,"MEAN_MOTION_DOT":-2.6e-07,"MEAN_MOTION_DDOT":0.0},{"OBJECT_NAME":"ONEWEB-0556","OBJECT_ID":"2023-029C","EPOCH":"2026-04-18T05:40:14.971296","MEAN_MOTION":13.20771321,"ECCENTRICITY":0.0002453,"INCLINATION":87.9127,"RA_OF_ASC_NODE":286.4418,"ARG_OF_PERICENTER":106.8391,"MEAN_ANOMALY":253.3012,"EPHEMERIS_TYPE":0,"CLASSIFICATION_TYPE":"U","NORAD_CAT_ID":55798,"ELEMENT_SET_NO":999,"REV_AT_EPOCH":15323,"BSTAR":0.00031813999999999996,"MEAN_MOTION_DOT":1.42e-06,"MEAN_MOTION_DDOT":0.0},{"OBJECT_NAME":"ONEWEB-0562","OBJECT_ID":"2023-029D","EPOCH":"2026-04-18T05:22:02.436384","MEAN_MOTION":13.20773121,"ECCENTRICITY":0.000197,"INCLINATION":87.9127,"RA_OF_ASC_NODE":286.4247,"ARG_OF_PERICENTER":120.0273,"MEAN_ANOMALY":240.1056,"EPHEMERIS_TYPE":0,"CLASSIFICATION_TYPE":"U","NORAD_CAT_ID":55799,"ELEMENT_SET_NO":999,"REV_AT_EPOCH":15323,"BSTAR":4.874700000000001e-06,"MEAN_MOTION_DOT":1.5e-07,"MEAN_MOTION_DDOT":0.0},{"OBJECT_NAME":"ONEWEB-0563","OBJECT_ID":"2023-029E","EPOCH":"2026-04-18T05:12:58.446432","MEAN_MOTION":13.20771807,"ECCENTRICITY":0.0002017,"INCLINATION":87.9125,"RA_OF_ASC_NODE":286.4563,"ARG_OF_PERICENTER":93.0519,"MEAN_ANOMALY":267.0845,"EPHEMERIS_TYPE":0,"CLASSIFICATION_TYPE":"U","NORAD_CAT_ID":55800,"ELEMENT_SET_NO":999,"REV_AT_EPOCH":15322,"BSTAR":0.00011943,"MEAN_MOTION_DOT":6.2e-07,"MEAN_MOTION_DDOT":0.0},{"OBJECT_NAME":"ONEWEB-0564","OBJECT_ID":"2023-029F","EPOCH":"2026-04-18T01:25:41.203488","MEAN_MOTION":13.20773167,"ECCENTRICITY":0.0001687,"INCLINATION":87.9128,"RA_OF_ASC_NODE":286.4603,"ARG_OF_PERICENTER":106.0793,"MEAN_ANOMALY":254.0526,"EPHEMERIS_TYPE":0,"CLASSIFICATION_TYPE":"U","NORAD_CAT_ID":55801,"ELEMENT_SET_NO":999,"REV_AT_EPOCH":15321,"BSTAR":0.000191,"MEAN_MOTION_DOT":9.1e-07,"MEAN_MOTION_DDOT":0.0},{"OBJECT_NAME":"ONEWEB-0638","OBJECT_ID":"2023-029G","EPOCH":"2026-04-18T06:14:25.872288","MEAN_MOTION":13.14502398,"ECCENTRICITY":0.0002091,"INCLINATION":87.892,"RA_OF_ASC_NODE":301.7189,"ARG_OF_PERICENTER":103.7044,"MEAN_ANOMALY":256.4318,"EPHEMERIS_TYPE":0,"CLASSIFICATION_TYPE":"U","NORAD_CAT_ID":55802,"ELEMENT_SET_NO":999,"REV_AT_EPOCH":15152,"BSTAR":-0.00055748,"MEAN_MOTION_DOT":-1.94e-06,"MEAN_MOTION_DDOT":0.0}]