ONEWEB-0631             
1 55171U 23004AH  26108.15870111  .00000084  00000+0  18149-3 0  9996
2 55171  87.9219 347.3722 0001409  68.2567 291.8715 13.18686130161764
ONEWEB-0709             
1 55172U 23004AJ  26108.23509089  .00000572  00000+0  15793-2 0  9992
2 55172  87.8920  32.9989 0002144  53.7778 306.3548 13.11419685158017
ONEWEB-0710             
1 55173U 23004AK  26108.21420518 -.00000032  00000+0 -11498-3 0  9992
2 55173  87.9186  17.7806 0001659  81.0869 279.0451 13.17647842159684
ONEWEB-0711             
1 55174U 23004AL  26107.21439467 -.00000345  00000+0 -10103-2 0  9993
2 55174  87.8927  33.1878 0001015  89.1107 271.0137 13.11418516157845
ONEWEB-0713             
1 55175U 23004AM  26108.22491268  .00000130  00000+0  33179-3 0  9992
2 55175  87.8921  32.9867 0001552  84.8169 275.3136 13.11418242157966
ONEWEB-0715             
1 55176U 23004AN  26108.21982293  .00000160  00000+0  41427-3 0  9993
2 55176  87.8923  32.9871 0001742  57.2379 302.8917 13.11418372158005
ONEWEB-0716             
1 55177U 23004AP  26108.20744930 -.00000034  00000+0 -12156-3 0  9996
2 55177  87.9183  17.7833 0002092  80.3957 279.7411 13.17647337159689
ONEWEB-0717             
1 55178U 23004AQ  26108.19057427  .00000083  00000+0  18153-3 0  9998
2 55178  87.9195  17.7694 0001163  87.9187 272.2078 13.17647606159736
ONEWEB-0719             
1 55179U 23004AR  26108.20069984  .00000019  00000+0  16034-4 0  9998
2 55179  87.9190  17.7487 0002010  83.8583 276.2777 13.17647382159684
ONEWEB-0530             
1 55796U 23029A   26108.24258139 -.00000083  00000+0 -23625-3 0  9992
2 55796  87.9127 286.4402 0001620 110.1416 249.9892 13.20772768153237
ONEWEB-0534             
1 55797U 23029B   26108.22995307 -.00000026  00000+0 -94810-4 0  9998
2 55797  87.9131 286.4417 0001883  92.8772 267.2577 13.20772824153237
ONEWEB-0556             
1 55798U 23029C   26108.23628439  .00000142  00000+0  31814-3 0  9990
2 55798  87.9127 286.4418 0002453 106.8391 253.3012 13.20771321153232
ONEWEB-0562             
1 55799U 23029D   26108.22363931  .00000015  00000+0  48747-5 0  9997
2 55799  87.9127 286.4247 0001970 120.0273 240.1056 13.20773121153235
ONEWEB-0563             
1 55800U 23029E   26108.21734313  .00000062  00000+0  11943-3 0  9993
2 55800  87.9125 286.4563 0002017  93.0519 267.0845 13.20771807153224
ONEWEB-0564             
1 55801U 23029F   26108.05950467  .00000091  00000+0  19100-3 0  9991
2 55801  87.9128 286.4603 0001687 106.0793 254.0526 13.20773167153216
ONEWEB-0638             
1 55802U 23029G   26108.26002167 -.00000194  00000+0 -55748-3 0  9994
2 55802  87.8920 301.7189 0002091 103.7044 256.4318 13.14502398151525
